HAWK-11C                
1 62381U 24247E   26068.51221537  .00009223  00000+0  33290-3 0  9992
2 62381  45.0045 114.8762 0005900 329.7040  30.3502 15.28848020 67743
STARLINK-34363          
1 64497U 25133AB  26068.44965454  .00013108  00000+0  45497-3 0  9991
2 64497  53.1610 117.7629 0001463  77.9990 282.1175 15.30124969 41153
